H1 CPF 01  gfz 2022 12 28 13  8622 terrasarx 
H2 0702601  6201 31698    2022 12 28 12 59 42 2023 01 02 00 00 42   120 1 1  0 0 0
H9
10 0 59942  43182.000000  0      63302.603  -6888916.538     63316.623
10 0 59942  43302.000000  0    -114860.792  -6838253.607   -839840.461
10 0 59942  43422.000000  0    -289058.901  -6665078.441  -1728226.984
10 0 59942  43542.000000  0    -454137.594  -6372617.538  -2586240.219
10 0 59942  43662.000000  0    -605182.859  -5966277.522  -3398840.464
10 0 59942  43782.000000  0    -737644.141  -5453534.379  -4151818.383
10 0 59942  43902.000000  0    -847448.010  -4843782.454  -4832043.208
10 0 59942  44022.000000  0    -931099.545  -4148149.741  -5427686.528
10 0 59942  44142.000000  0    -985769.387  -3379284.370  -5928420.075
10 0 59942  44262.000000  0   -1009364.594  -2551116.885  -6325584.821
10 0 59942  44382.000000  0   -1000582.400  -1678603.201  -6612329.408
10 0 59942  44502.000000  0    -958946.203   -777454.258  -6783716.921
10 0 59942  44622.000000  0    -884823.552    136143.663  -6836801.115
10 0 59942  44742.000000  0    -779424.877   1045813.948  -6770670.497
10 0 59942  44862.000000  0    -644783.930   1935275.351  -6586461.954
10 0 59942  44982.000000  0    -483720.580   2788625.798  -6287343.451
10 0 59942  45102.000000  0    -299785.480   3590621.445  -5878466.922
10 0 59942  45222.000000  0     -97187.036   4326947.505  -5366888.785
10 0 59942  45342.000000  0     119297.525   4984474.430  -4761459.013
10 0 59942  45462.000000  0     344425.487   5551497.769  -4072679.729
10 0 59942  45582.000000  0     572605.186   6017955.598  -3312532.592
10 0 59942  45702.000000  0     798023.324   6375618.036  -2494277.751
10 0 59942  45822.000000  0    1014780.536   6618245.310  -1632226.849
10 0 59942  45942.000000  0    1217032.054   6741709.295   -741492.686
10 0 59942  46062.000000  0    1399130.203   6744074.441    162279.600
10 0 59942  46182.000000  0    1555764.845   6625634.374   1063194.243
10 0 59942  46302.000000  0    1682097.111   6388903.820   1945392.002
10 0 59942  46422.000000  0    1773884.334   6038567.094   2793337.324
10 0 59942  46542.000000  0    1827592.740   5581383.446   3592099.617
10 0 59942  46662.000000  0    1840494.529   5026051.125   4327623.535
10 0 59942  46782.000000  0    1810747.136   4383032.800   4986980.709
10 0 59942  46902.000000  0    1737452.608   3664346.642   5558598.268
10 0 59942  47022.000000  0    1620695.571   2883332.802   6032456.724
10 0 59942  47142.000000  0    1461560.833   2054399.759   6400261.469
10 0 59942  47262.000000  0    1262128.892   1192752.760   6655582.785
10 0 59942  47382.000000  0    1025450.138    314111.159   6793961.332
10 0 59942  47502.000000  0     755498.346   -565577.671   6812980.456
10 0 59942  47622.000000  0     457103.847  -1430427.054   6712307.537
10 0 59942  47742.000000  0     135866.944  -2264898.070   6493699.612
10 0 59942  47862.000000  0    -201947.112  -3054079.163   6160974.730
10 0 59942  47982.000000  0    -549528.727  -3783954.083   5719947.223
10 0 59942  48102.000000  0    -899657.910  -4441651.374   5178330.740
10 0 59942  48222.000000  0   -1244850.844  -5015675.774   4545612.185
10 0 59942  48342.000000  0   -1577517.764  -5496118.766   3832892.551
10 0 59942  48462.000000  0   -1890126.889  -5874839.918   3052694.422
10 0 59942  48582.000000  0   -2175371.373  -6145613.539   2218741.957
10 0 59942  48702.000000  0   -2426335.557  -6304238.656   1345717.138
10 0 59942  48822.000000  0   -2636655.101  -6348609.359    448995.685
10 0 59942  48942.000000  0   -2800667.628  -6278743.360   -455631.323
10 0 59942  49062.000000  0   -2913549.982  -6096767.624  -1352244.312
10 0 59942  49182.000000  0   -2971438.878  -5806861.240  -2225084.140
10 0 59942  49302.000000  0   -2971531.883  -5415157.306  -3058836.629
10 0 59942  49422.000000  0   -2912165.749  -4929606.184  -3838906.636
10 0 59942  49542.000000  0   -2792870.121  -4359804.360  -4551674.483
10 0 59942  49662.000000  0   -2614396.462  -3716795.322  -5184730.196
10 0 59942  49782.000000  0   -2378722.535  -3012847.509  -5727082.818
10 0 59942  49902.000000  0   -2089032.573  -2261214.204  -6169342.289
10 0 59942  50022.000000  0   -1749672.778  -1475880.332  -6503871.663
10 0 59942  50142.000000  0   -1366083.999   -671301.523  -6724907.177
10 0 59942  50262.000000  0    -944714.298    137859.217  -6828646.397
10 0 59942  50382.000000  0    -492911.841    936992.746  -6813305.973
10 0 59942  50502.000000  0     -18799.062   1711800.709  -6679148.823
10 0 59942  50622.000000  0     468868.496   2448544.406  -6428480.422
10 0 59942  50742.000000  0     960859.880   3134284.172  -6065615.682
10 0 59942  50862.000000  0    1447639.852   3757104.955  -5596811.925
10 0 59942  50982.000000  0    1919549.345   4306323.456  -5030170.956
10 0 59942  51102.000000  0    2366994.407   4772675.437  -4375511.119
10 0 59942  51222.000000  0    2780639.518   5148479.526  -3644207.387
10 0 59942  51342.000000  0    3151601.088   5427772.347  -2849002.303
10 0 59942  51462.000000  0    3471638.289   5606413.209  -2003789.810
10 0 59942  51582.000000  0    3733335.773   5682153.815  -1123374.159
10 0 59942  51702.000000  0    3930273.156   5654671.517   -223208.384
10 0 59942  51822.000000  0    4057176.832   5525563.902    680882.457
10 0 59942  51942.000000  0    4110050.314   5298304.034   1572987.116
10 0 59942  52062.000000  0    4086279.063   4978157.724   2437395.417
10 0 59942  52182.000000  0    3984708.797   4572067.446   3258884.203
10 0 59942  52302.000000  0    3805691.354   4088499.028   4022993.809
10 0 59942  52422.000000  0    3551101.105   3537261.096   4716285.440
10 0 59942  52542.000000  0    3224320.596   2929302.051   5326581.341
10 0 59942  52662.000000  0    2830191.821   2276485.527   5843178.024
10 0 59942  52782.000000  0    2374942.016   1591353.634   6257027.772
10 0 59942  52902.000000  0    1866082.200    886882.114   6560892.140
10 0 59942  53022.000000  0    1312279.755    176232.703   6749461.695
10 0 59942  53142.000000  0     723208.726   -527491.499   6819443.575
10 0 59942  53262.000000  0     109380.192  -1211487.699   6769616.669
10 0 59942  53382.000000  0    -518045.584  -1863486.301   6600851.191
10 0 59942  53502.000000  0   -1147461.974  -2471971.010   6316093.653
10 0 59942  53622.000000  0   -1767029.041  -3026382.149   5920317.073
10 0 59942  53742.000000  0   -2364893.895  -3517301.031   5420440.468
10 0 59942  53862.000000  0   -2929418.714  -3936614.294   4825216.065
10 0 59942  53982.000000  0   -3449411.646  -4277653.502   4145081.824
10 0 59942  54102.000000  0   -3914352.427  -4535306.047   3391981.360
10 0 59942  54222.000000  0   -4314608.143  -4706096.025   2579155.812
10 0 59942  54342.000000  0   -4641636.092  -4788233.677   1720910.723
10 0 59942  54462.000000  0   -4888168.605  -4781630.552    832359.938
10 0 59942  54582.000000  0   -5048374.105  -4687879.657    -70847.068
10 0 59942  54702.000000  0   -5117990.805  -4510201.438   -972809.120
10 0 59942  54822.000000  0   -5094428.927  -4253356.550  -1857663.037
10 0 59942  54942.000000  0   -4976838.009  -3923526.724  -2709871.754
10 0 59942  55062.000000  0   -4766138.002  -3528168.061  -3514502.701
10 0 59942  55182.000000  0   -4465015.293  -3075841.989  -4257491.393
10 0 59942  55302.000000  0   -4077884.115  -2576027.891  -4925886.151
10 0 59942  55422.000000  0   -3610814.249  -2038921.863  -5508068.902
10 0 59942  55542.000000  0   -3071428.056  -1475227.079  -5993948.893
10 0 59942  55662.000000  0   -2468769.675   -895939.903  -6375127.375
10 0 59942  55782.000000  0   -1813148.422   -312136.470  -6645031.591
10 0 59942  55902.000000  0   -1115960.038    265235.878  -6799015.932
10 0 59942  56022.000000  0    -389491.135    825558.405  -6834432.282
10 0 59942  56142.000000  0     353292.705   1358731.362  -6750670.653
10 0 59942  56262.000000  0    1098971.546   1855350.601  -6549169.284
10 0 59942  56382.000000  0    1833908.680   2306870.618  -6233394.487
10 0 59942  56502.000000  0    2544495.118   2705750.208  -5808787.192
10 0 59942  56622.000000  0    3217398.346   3045578.574  -5282677.803
10 0 59942  56742.000000  0    3839810.212   3321179.869  -4664171.207
10 0 59942  56862.000000  0    4399693.033   3528695.966  -3964001.060
10 0 59942  56982.000000  0    4886017.522   3665643.628  -3194352.933
10 0 59942  57102.000000  0    5288986.044   3730944.716  -2368658.579
10 0 59942  57222.000000  0    5600236.939   3724929.588  -1501365.334
10 0 59942  57342.000000  0    5813025.047   3649311.336   -607682.588
10 0 59942  57462.000000  0    5922372.488   3507131.500    296688.374
10 0 59942  57582.000000  0    5925186.640   3302678.462   1195836.632
10 0 59942  57702.000000  0    5820340.283   3041379.651   2073930.147
10 0 59942  57822.000000  0    5608711.915   2729671.222   2915503.017
10 0 59942  57942.000000  0    5293185.839   2374848.001   3705736.730
10 0 59942  58062.000000  0    4878610.154   1984896.857   4430727.624
10 0 59942  58182.000000  0    4371715.335   1568318.995   5077733.236
10 0 59942  58302.000000  0    3780999.566   1133945.777   5635396.587
10 0 59942  58422.000000  0    3116576.232    690751.765   6093944.613
10 0 59942  58542.000000  0    2389991.973    247669.543   6445352.173
10 0 59942  58662.000000  0    1614021.910   -186588.323   6683475.713
10 0 59942  58782.000000  0     802442.398   -603699.390   6804156.467
10 0 59942  58902.000000  0     -30216.228   -995890.319   6805288.835
10 0 59942  59022.000000  0    -868930.012  -1356080.931   6686853.888
10 0 59942  59142.000000  0   -1698451.731  -1678012.164   6450918.729
10 0 59942  59262.000000  0   -2503586.174  -1956354.368   6101601.489
10 0 59942  59382.000000  0   -3269466.845  -2186795.304   5645005.940
10 0 59942  59502.000000  0   -3981834.523  -2366108.865   5089123.031
10 0 59942  59622.000000  0   -4627308.121  -2492200.976   4443695.651
99
